[{"OBJECT_NAME":"SNUSAT-2","OBJECT_ID":"2018-099AA","EPOCH":"2026-03-05T02:59:41.246880","MEAN_MOTION":15.20061434,"ECCENTRICITY":0.00091398,"INCLINATION":97.4202,"RA_OF_ASC_NODE":119.1642,"ARG_OF_PERICENTER":304.0931,"MEAN_ANOMALY":55.9436,"EPHEMERIS_TYPE":0,"CLASSIFICATION_TYPE":"U","NORAD_CAT_ID":43782,"ELEMENT_SET_NO":999,"REV_AT_EPOCH":39721,"BSTAR":0.00048053129,"MEAN_MOTION_DOT":0.00010317,"MEAN_MOTION_DDOT":0},{"OBJECT_NAME":"SNUGLITE","OBJECT_ID":"2018-099AC","EPOCH":"2026-03-05T03:28:29.827488","MEAN_MOTION":15.24686338,"ECCENTRICITY":0.00014478,"INCLINATION":97.4014,"RA_OF_ASC_NODE":119.5593,"ARG_OF_PERICENTER":315.2065,"MEAN_ANOMALY":44.9056,"EPHEMERIS_TYPE":0,"CLASSIFICATION_TYPE":"U","NORAD_CAT_ID":43784,"ELEMENT_SET_NO":999,"REV_AT_EPOCH":39745,"BSTAR":0.00061634173,"MEAN_MOTION_DOT":0.00015183,"MEAN_MOTION_DDOT":0},{"OBJECT_NAME":"ITASAT","OBJECT_ID":"2018-099AE","EPOCH":"2026-03-05T02:14:15.121248","MEAN_MOTION":15.17585186,"ECCENTRICITY":0.00126563,"INCLINATION":97.4171,"RA_OF_ASC_NODE":117.715,"ARG_OF_PERICENTER":2.8965,"MEAN_ANOMALY":357.234,"EPHEMERIS_TYPE":0,"CLASSIFICATION_TYPE":"U","NORAD_CAT_ID":43786,"ELEMENT_SET_NO":999,"REV_AT_EPOCH":39711,"BSTAR":0.00051231356,"MEAN_MOTION_DOT":0.00010254,"MEAN_MOTION_DDOT":0},{"OBJECT_NAME":"EAGLET-I","OBJECT_ID":"2018-099AJ","EPOCH":"2026-03-05T02:53:42.126144","MEAN_MOTION":15.12052534,"ECCENTRICITY":0.00108777,"INCLINATION":97.4376,"RA_OF_ASC_NODE":116.5345,"ARG_OF_PERICENTER":354.071,"MEAN_ANOMALY":6.039,"EPHEMERIS_TYPE":0,"CLASSIFICATION_TYPE":"U","NORAD_CAT_ID":43790,"ELEMENT_SET_NO":999,"REV_AT_EPOCH":39660,"BSTAR":0.00031977034,"MEAN_MOTION_DOT":5.442e-5,"MEAN_MOTION_DDOT":0},{"OBJECT_NAME":"ESEO","OBJECT_ID":"2018-099AL","EPOCH":"2026-03-05T07:55:53.910048","MEAN_MOTION":15.03887668,"ECCENTRICITY":0.00115238,"INCLINATION":97.4107,"RA_OF_ASC_NODE":106.1149,"ARG_OF_PERICENTER":332.6867,"MEAN_ANOMALY":27.3752,"EPHEMERIS_TYPE":0,"CLASSIFICATION_TYPE":"U","NORAD_CAT_ID":43792,"ELEMENT_SET_NO":999,"REV_AT_EPOCH":39619,"BSTAR":0.0002498929,"MEAN_MOTION_DOT":3.388e-5,"MEAN_MOTION_DDOT":0},{"OBJECT_NAME":"THEA","OBJECT_ID":"2018-099AQ","EPOCH":"2026-03-05T04:04:02.185536","MEAN_MOTION":15.3122708,"ECCENTRICITY":0.00065768,"INCLINATION":97.4552,"RA_OF_ASC_NODE":133.0847,"ARG_OF_PERICENTER":296.1566,"MEAN_ANOMALY":63.8999,"EPHEMERIS_TYPE":0,"CLASSIFICATION_TYPE":"U","NORAD_CAT_ID":43796,"ELEMENT_SET_NO":999,"REV_AT_EPOCH":39675,"BSTAR":0.00074708409,"MEAN_MOTION_DOT":0.00022511,"MEAN_MOTION_DDOT":0},{"OBJECT_NAME":"ASTROCAST 0.1","OBJECT_ID":"2018-099AS","EPOCH":"2026-03-05T04:38:16.711008","MEAN_MOTION":15.42642716,"ECCENTRICITY":0.00052915,"INCLINATION":97.4467,"RA_OF_ASC_NODE":139.9506,"ARG_OF_PERICENTER":225.5184,"MEAN_ANOMALY":134.5631,"EPHEMERIS_TYPE":0,"CLASSIFICATION_TYPE":"U","NORAD_CAT_ID":43798,"ELEMENT_SET_NO":999,"REV_AT_EPOCH":39836,"BSTAR":0.00087235666,"MEAN_MOTION_DOT":0.00038054,"MEAN_MOTION_DDOT":0},{"OBJECT_NAME":"JY1SAT (JO-97)","OBJECT_ID":"2018-099AX","EPOCH":"2026-03-05T02:36:41.745600","MEAN_MOTION":15.3009508,"ECCENTRICITY":0.00046111,"INCLINATION":97.4261,"RA_OF_ASC_NODE":126.7857,"ARG_OF_PERICENTER":278.5608,"MEAN_ANOMALY":81.511,"EPHEMERIS_TYPE":0,"CLASSIFICATION_TYPE":"U","NORAD_CAT_ID":43803,"ELEMENT_SET_NO":999,"REV_AT_EPOCH":39769,"BSTAR":0.00074594772,"MEAN_MOTION_DOT":0.00021694,"MEAN_MOTION_DDOT":0},{"OBJECT_NAME":"SUOMI-100","OBJECT_ID":"2018-099AY","EPOCH":"2026-03-05T03:47:26.408256","MEAN_MOTION":15.25848104,"ECCENTRICITY":0.00089384,"INCLINATION":97.4326,"RA_OF_ASC_NODE":125.0616,"ARG_OF_PERICENTER":288.4656,"MEAN_ANOMALY":71.5611,"EPHEMERIS_TYPE":0,"CLASSIFICATION_TYPE":"U","NORAD_CAT_ID":43804,"ELEMENT_SET_NO":999,"REV_AT_EPOCH":39754,"BSTAR":0.00059781408,"MEAN_MOTION_DOT":0.00015262,"MEAN_MOTION_DDOT":0},{"OBJECT_NAME":"AL-FARABI 2","OBJECT_ID":"2018-099AZ","EPOCH":"2026-03-05T03:30:45.917856","MEAN_MOTION":15.66523859,"ECCENTRICITY":0.00046214,"INCLINATION":97.4111,"RA_OF_ASC_NODE":139.7331,"ARG_OF_PERICENTER":225.721,"MEAN_ANOMALY":134.3672,"EPHEMERIS_TYPE":0,"CLASSIFICATION_TYPE":"U","NORAD_CAT_ID":43805,"ELEMENT_SET_NO":999,"REV_AT_EPOCH":39864,"BSTAR":0.0014824008,"MEAN_MOTION_DOT":0.00157049,"MEAN_MOTION_DDOT":0},{"OBJECT_NAME":"CENTAURI-1","OBJECT_ID":"2018-099BD","EPOCH":"2026-03-05T02:27:47.046240","MEAN_MOTION":15.15174169,"ECCENTRICITY":0.00136355,"INCLINATION":97.4362,"RA_OF_ASC_NODE":118.0689,"ARG_OF_PERICENTER":334.9124,"MEAN_ANOMALY":25.1445,"EPHEMERIS_TYPE":0,"CLASSIFICATION_TYPE":"U","NORAD_CAT_ID":43809,"ELEMENT_SET_NO":999,"REV_AT_EPOCH":39673,"BSTAR":0.00044204577,"MEAN_MOTION_DOT":8.25e-5,"MEAN_MOTION_DDOT":0},{"OBJECT_NAME":"GLOBAL-2","OBJECT_ID":"2018-099BG","EPOCH":"2026-03-05T02:54:26.273952","MEAN_MOTION":15.08004385,"ECCENTRICITY":0.00069182,"INCLINATION":97.3694,"RA_OF_ASC_NODE":104.9362,"ARG_OF_PERICENTER":141.5799,"MEAN_ANOMALY":218.5923,"EPHEMERIS_TYPE":0,"CLASSIFICATION_TYPE":"U","NORAD_CAT_ID":43812,"ELEMENT_SET_NO":999,"REV_AT_EPOCH":39622,"BSTAR":0.00032756451,"MEAN_MOTION_DOT":4.983e-5,"MEAN_MOTION_DDOT":0},{"OBJECT_NAME":"SEAHAWK-1","OBJECT_ID":"2018-099BQ","EPOCH":"2026-03-05T02:54:43.191072","MEAN_MOTION":15.20908224,"ECCENTRICITY":0.00072685,"INCLINATION":97.4102,"RA_OF_ASC_NODE":118.2581,"ARG_OF_PERICENTER":321.6765,"MEAN_ANOMALY":38.3953,"EPHEMERIS_TYPE":0,"CLASSIFICATION_TYPE":"U","NORAD_CAT_ID":43820,"ELEMENT_SET_NO":999,"REV_AT_EPOCH":39670,"BSTAR":0.00052127005,"MEAN_MOTION_DOT":0.00011475,"MEAN_MOTION_DDOT":0},{"OBJECT_NAME":"SAUDISAT 5A","OBJECT_ID":"2018-102A","EPOCH":"2026-03-05T07:59:46.667328","MEAN_MOTION":15.26864022,"ECCENTRICITY":0.00111148,"INCLINATION":97.3196,"RA_OF_ASC_NODE":127.9353,"ARG_OF_PERICENTER":136.2144,"MEAN_ANOMALY":223.9979,"EPHEMERIS_TYPE":0,"CLASSIFICATION_TYPE":"U","NORAD_CAT_ID":43831,"ELEMENT_SET_NO":999,"REV_AT_EPOCH":39982,"BSTAR":0.00030923038,"MEAN_MOTION_DOT":8.104e-5,"MEAN_MOTION_DDOT":0},{"OBJECT_NAME":"SAUDISAT 5B","OBJECT_ID":"2018-102C","EPOCH":"2026-03-05T07:20:25.019232","MEAN_MOTION":15.27175689,"ECCENTRICITY":0.00118078,"INCLINATION":97.3293,"RA_OF_ASC_NODE":130.7928,"ARG_OF_PERICENTER":138.8602,"MEAN_ANOMALY":221.3529,"EPHEMERIS_TYPE":0,"CLASSIFICATION_TYPE":"U","NORAD_CAT_ID":43833,"ELEMENT_SET_NO":999,"REV_AT_EPOCH":39993,"BSTAR":0.00028452434,"MEAN_MOTION_DOT":7.523e-5,"MEAN_MOTION_DDOT":0},{"OBJECT_NAME":"2018-102D","OBJECT_ID":"2018-102D","EPOCH":"2026-03-05T07:27:57.520224","MEAN_MOTION":15.55679378,"ECCENTRICITY":0.00054839,"INCLINATION":97.3493,"RA_OF_ASC_NODE":149.7042,"ARG_OF_PERICENTER":93.5711,"MEAN_ANOMALY":266.6171,"EPHEMERIS_TYPE":0,"CLASSIFICATION_TYPE":"U","NORAD_CAT_ID":43834,"ELEMENT_SET_NO":999,"REV_AT_EPOCH":40104,"BSTAR":0.00065075325,"MEAN_MOTION_DOT":0.00044832,"MEAN_MOTION_DDOT":0}]
