SNUSAT-2                
1 43782U 18099AA  26064.12478295  .00010317  00000+0  48053-3 0  9991
2 43782  97.4202 119.1642 0009139 304.0931  55.9436 15.20061434397216
SNUGLITE                
1 43784U 18099AC  26064.14478967  .00015183  00000+0  61634-3 0  9997
2 43784  97.4014 119.5593 0001447 315.2065  44.9056 15.24686338397456
ITASAT                  
1 43786U 18099AE  26064.09323057  .00010254  00000+0  51231-3 0  9998
2 43786  97.4171 117.7150 0012656   2.8965 357.2340 15.17585186397113
EAGLET-I                
1 43790U 18099AJ  26064.12062646  .00005442  00000+0  31977-3 0  9999
2 43790  97.4376 116.5345 0010877 354.0710   6.0390 15.12052534396609
ESEO                    
1 43792U 18099AL  26064.33048507  .00003388  00000+0  24989-3 0  9996
2 43792  97.4107 106.1149 0011523 332.6867  27.3752 15.03887668396190
THEA                    
1 43796U 18099AQ  26064.16946974  .00022511  00000+0  74708-3 0  9999
2 43796  97.4552 133.0847 0006576 296.1566  63.8999 15.31227080396751
ASTROCAST 0.1           
1 43798U 18099AS  26064.19324897  .00038054  00000+0  87236-3 0  9997
2 43798  97.4467 139.9506 0005291 225.5184 134.5631 15.42642716398367
JY1SAT (JO-97)          
1 43803U 18099AX  26064.10881650  .00021694  00000+0  74595-3 0  9996
2 43803  97.4261 126.7857 0004611 278.5608  81.5110 15.30095080397694
SUOMI-100               
1 43804U 18099AY  26064.15794454  .00015262  00000+0  59781-3 0  9991
2 43804  97.4326 125.0616 0008938 288.4656  71.5611 15.25848104397547
AL-FARABI 2             
1 43805U 18099AZ  26064.14636479  .00157049  00000+0  14824-2 0  9991
2 43805  97.4111 139.7331 0004621 225.7210 134.3672 15.66523859398640
CENTAURI-1              
1 43809U 18099BD  26064.10262785  .00008250  00000+0  44205-3 0  9992
2 43809  97.4362 118.0689 0013635 334.9124  25.1445 15.15174169396733
GLOBAL-2                
1 43812U 18099BG  26064.12113743  .00004983  00000+0  32756-3 0  9994
2 43812  97.3694 104.9362 0006918 141.5799 218.5923 15.08004385396229
SEAHAWK-1               
1 43820U 18099BQ  26064.12133323  .00011475  00000+0  52127-3 0  9997
2 43820  97.4102 118.2581 0007268 321.6765  38.3953 15.20908224396700
SAUDISAT 5A             
1 43831U 18102A   26064.33317902  .00008104  00000+0  30923-3 0  9999
2 43831  97.3196 127.9353 0011114 136.2144 223.9979 15.26864022399823
SAUDISAT 5B             
1 43833U 18102C   26064.30584513  .00007523  00000+0  28452-3 0  9990
2 43833  97.3293 130.7928 0011807 138.8602 221.3529 15.27175689399939
2018-102D               
1 43834U 18102D   26064.31108241  .00044832  00000+0  65075-3 0  9998
2 43834  97.3493 149.7042 0005483  93.5711 266.6171 15.55679378401046
